{
  "type": "FeatureCollection",
  "features": [
    {
      "type": "Feature",
      "geometry": {
        "type": "Polygon",
        "coordinates": [
          [
            [
              139.9301521645,
              35.8992601613
            ],
            [
              139.9303216818,
              35.8992324869
            ],
            [
              139.9304652788,
              35.8991541374
            ],
            [
              139.9305610939,
              35.899037041
            ],
            [
              139.9305945403,
              35.8988990246
            ],
            [
              139.9305605265,
              35.8987611001
            ],
            [
              139.930464231,
              35.8986442651
            ],
            [
              139.930320314,
              35.8985663066
            ],
            [
              139.9301506856,
              35.8985390929
            ],
            [
              139.9299811697,
              35.898566767
            ],
            [
              139.9298375734,
              35.8986451159
            ],
            [
              139.9297417577,
              35.8987622118
            ],
            [
              139.9297083098,
              35.8989002279
            ],
            [
              139.9297423222,
              35.8990381527
            ],
            [
              139.9298386171,
              35.8991549883
            ],
            [
              139.9299825347,
              35.8992329474
            ],
            [
              139.9301521645,
              35.8992601613
            ]
          ]
        ]
      },
      "properties": {
        "ZoneID": "Zone_1",
        "NumVertices": 17
      }
    },
    {
      "type": "Feature",
      "geometry": {
        "type": "Polygon",
        "coordinates": [
          [
            [
              139.9318727255,
              35.9027189493
            ],
            [
              139.9320422495,
              35.9026912725
            ],
            [
              139.932185851,
              35.902612921
            ],
            [
              139.9322816677,
              35.9024958232
            ],
            [
              139.9323151126,
              35.9023578065
            ],
            [
              139.9322810943,
              35.9022198825
            ],
            [
              139.932184792,
              35.902103049
            ],
            [
              139.9320408672,
              35.9020250926
            ],
            [
              139.9318712307,
              35.9019978814
            ],
            [
              139.9317017081,
              35.902025558
            ],
            [
              139.9315581072,
              35.9021039089
            ],
            [
              139.9314622899,
              35.902221006
            ],
            [
              139.9314288436,
              35.9023590226
            ],
            [
              139.9314628605,
              35.9024969468
            ],
            [
              139.9315591622,
              35.9026137809
            ],
            [
              139.9317030877,
              35.9026917378
            ],
            [
              139.9318727255,
              35.9027189493
            ]
          ]
        ]
      },
      "properties": {
        "ZoneID": "Zone_2",
        "NumVertices": 17
      }
    },
    {
      "type": "Feature",
      "geometry": {
        "type": "Polygon",
        "coordinates": [
          [
            [
              139.9336149955,
              35.8944332498
            ],
            [
              139.9337845013,
              35.8944055706
            ],
            [
              139.9339280861,
              35.894327217
            ],
            [
              139.9340238903,
              35.8942101177
            ],
            [
              139.9340573287,
              35.8940721003
            ],
            [
              139.934023311,
              35.8939341767
            ],
            [
              139.9339270163,
              35.8938173443
            ],
            [
              139.9337831048,
              35.8937393898
            ],
            [
              139.9336134855,
              35.8937121811
            ],
            [
              139.9334439811,
              35.8937398601
            ],
            [
              139.9333003968,
              35.8938182132
            ],
            [
              139.933204592,
              35.8939353118
            ],
            [
              139.9331711522,
              35.894073329
            ],
            [
              139.9332051686,
              35.894211253
            ],
            [
              139.9333014626,
              35.8943280858
            ],
            [
              139.9334453748,
              35.8944060408
            ],
            [
              139.9336149955,
              35.8944332498
            ]
          ]
        ]
      },
      "properties": {
        "ZoneID": "Zone_3",
        "NumVertices": 17
      }
    },
    {
      "type": "Feature",
      "geometry": {
        "type": "Polygon",
        "coordinates": [
          [
            [
              139.9387300458,
              35.904319733
            ],
            [
              139.9388995708,
              35.9042920465
            ],
            [
              139.9390431683,
              35.9042136868
            ],
            [
              139.9391389769,
              35.9040965837
            ],
            [
              139.9391724105,
              35.903958565
            ],
            [
              139.9391383796,
              35.9038206431
            ],
            [
              139.9390420653,
              35.9037038151
            ],
            [
              139.9388981309,
              35.903625867
            ],
            [
              139.9387284887,
              35.9035986655
            ],
            [
              139.9385589651,
              35.9036263518
            ],
            [
              139.9384153681,
              35.9037047109
            ],
            [
              139.938319559,
              35.9038218134
            ],
            [
              139.938286124,
              35.9039598318
            ],
            [
              139.9383201535,
              35.904097754
            ],
            [
              139.9384164671,
              35.9042145826
            ],
            [
              139.9385604022,
              35.9042925312
            ],
            [
              139.9387300458,
              35.904319733
            ]
          ]
        ]
      },
      "properties": {
        "ZoneID": "Zone_4",
        "NumVertices": 17
      }
    },
    {
      "type": "Feature",
      "geometry": {
        "type": "Polygon",
        "coordinates": [
          [
            [
              139.9454918702,
              35.9060299288
            ],
            [
              139.9456613964,
              35.9060022328
            ],
            [
              139.9458049904,
              35.9059238651
            ],
            [
              139.945900791,
              35.9058067566
            ],
            [
              139.9459342135,
              35.9056687362
            ],
            [
              139.9459001702,
              35.9055308162
            ],
            [
              139.9458038439,
              35.9054139937
            ],
            [
              139.9456598997,
              35.9053360538
            ],
            [
              139.9454902517,
              35.9053088619
            ],
            [
              139.9453207268,
              35.9053365577
            ],
            [
              139.9451771335,
              35.9054149248
            ],
            [
              139.9450813323,
              35.9055320327
            ],
            [
              139.9450479083,
              35.9056700529
            ],
            [
              139.9450819502,
              35.9058079731
            ],
            [
              139.9451782759,
              35.9059247962
            ],
            [
              139.9453222207,
              35.9060027367
            ],
            [
              139.9454918702,
              35.9060299288
            ]
          ]
        ]
      },
      "properties": {
        "ZoneID": "Zone_5",
        "NumVertices": 17
      }
    },
    {
      "type": "Feature",
      "geometry": {
        "type": "Polygon",
        "coordinates": [
          [
            [
              139.941561249,
              35.9020713233
            ],
            [
              139.9417307683,
              35.9020436328
            ],
            [
              139.941874359,
              35.9019652698
            ],
            [
              139.9419701606,
              35.9018481644
            ],
            [
              139.9420035884,
              35.9017101449
            ],
            [
              139.9419695536,
              35.9015722237
            ],
            [
              139.9418732379,
              35.901455398
            ],
            [
              139.9417293047,
              35.9013774532
            ],
            [
              139.9415596665,
              35.9013502557
            ],
            [
              139.9413901486,
              35.901377946
            ],
            [
              139.9412465585,
              35.9014563085
            ],
            [
              139.9411507563,
              35.9015734133
            ],
            [
              139.9411173271,
              35.9017114325
            ],
            [
              139.9411513605,
              35.901849354
            ],
            [
              139.9412476756,
              35.9019661803
            ],
            [
              139.9413916093,
              35.9020441256
            ],
            [
              139.941561249,
              35.9020713233
            ]
          ]
        ]
      },
      "properties": {
        "ZoneID": "Zone_6",
        "NumVertices": 17
      }
    },
    {
      "type": "Feature",
      "geometry": {
        "type": "Polygon",
        "coordinates": [
          [
            [
              139.9380933175,
              35.8924395051
            ],
            [
              139.9382628174,
              35.8924118195
            ],
            [
              139.9384063942,
              35.8923334606
            ],
            [
              139.9385021894,
              35.8922163577
            ],
            [
              139.9385356192,
              35.892078339
            ],
            [
              139.9385015946,
              35.8919404164
            ],
            [
              139.9384052957,
              35.8918235877
            ],
            [
              139.9382613834,
              35.8917456387
            ],
            [
              139.9380917668,
              35.8917184361
            ],
            [
              139.9379222684,
              35.8917461214
            ],
            [
              139.9377786922,
              35.8918244798
            ],
            [
              139.9376828964,
              35.8919415821
            ],
            [
              139.9376494651,
              35.8920796006
            ],
            [
              139.9376834883,
              35.8922175232
            ],
            [
              139.9377797866,
              35.8923343527
            ],
            [
              139.9379236995,
              35.8924123023
            ],
            [
              139.9380933175,
              35.8924395051
            ]
          ]
        ]
      },
      "properties": {
        "ZoneID": "Zone_7",
        "NumVertices": 17
      }
    },
    {
      "type": "Feature",
      "geometry": {
        "type": "Polygon",
        "coordinates": [
          [
            [
              139.940694747,
              35.8899841308
            ],
            [
              139.9408642408,
              35.8899564416
            ],
            [
              139.9410078106,
              35.8898780795
            ],
            [
              139.941103599,
              35.8897609745
            ],
            [
              139.9411370233,
              35.8896229551
            ],
            [
              139.9411029952,
              35.8894850333
            ],
            [
              139.9410066955,
              35.8893682066
            ],
            [
              139.9408627851,
              35.8892902606
            ],
            [
              139.940693173,
              35.8892630617
            ],
            [
              139.9405236806,
              35.8892907508
            ],
            [
              139.9403801114,
              35.8893691123
            ],
            [
              139.9402843224,
              35.8894862167
            ],
            [
              139.9402508966,
              35.8896242359
            ],
            [
              139.9402849233,
              35.8897621579
            ],
            [
              139.9403812224,
              35.8898789852
            ],
            [
              139.9405251334,
              35.8899569318
            ],
            [
              139.940694747,
              35.8899841308
            ]
          ]
        ]
      },
      "properties": {
        "ZoneID": "Zone_8",
        "NumVertices": 17
      }
    },
    {
      "type": "Feature",
      "geometry": {
        "type": "Polygon",
        "coordinates": [
          [
            [
              139.9448507271,
              35.8868519064
            ],
            [
              139.9450202127,
              35.8868242113
            ],
            [
              139.9451637727,
              35.8867458442
            ],
            [
              139.9452595513,
              35.8866287359
            ],
            [
              139.9452929671,
              35.8864907152
            ],
            [
              139.9452589332,
              35.8863527946
            ],
            [
              139.9451626312,
              35.8862359712
            ],
            [
              139.9450187224,
              35.8861580301
            ],
            [
              139.9448491155,
              35.8861308371
            ],
            [
              139.9446796313,
              35.886158532
            ],
            [
              139.9445360719,
              35.8862368985
            ],
            [
              139.9444402927,
              35.8863540062
            ],
            [
              139.9444068755,
              35.8864920266
            ],
            [
              139.944440908,
              35.8866299475
            ],
            [
              139.9445372094,
              35.8867467715
            ],
            [
              139.9446811187,
              35.8868247132
            ],
            [
              139.9448507271,
              35.8868519064
            ]
          ]
        ]
      },
      "properties": {
        "ZoneID": "Zone_9",
        "NumVertices": 17
      }
    },
    {
      "type": "Feature",
      "geometry": {
        "type": "Polygon",
        "coordinates": [
          [
            [
              139.9509057313,
              35.9028235201
            ],
            [
              139.9510752488,
              35.9027958164
            ],
            [
              139.9512188316,
              35.9027174422
            ],
            [
              139.9513146203,
              35.9026003294
            ],
            [
              139.9513480322,
              35.9024623074
            ],
            [
              139.9513139808,
              35.9023243889
            ],
            [
              139.9512176505,
              35.9022075707
            ],
            [
              139.9510737069,
              35.9021296372
            ],
            [
              139.9509040639,
              35.9021024529
            ],
            [
              139.9507345478,
              35.9021301564
            ],
            [
              139.9505909655,
              35.90220853
            ],
            [
              139.9504951762,
              35.9023256423
            ],
            [
              139.9504617629,
              35.902463664
            ],
            [
              139.9504958129,
              35.9026015827
            ],
            [
              139.9505921426,
              35.9027184015
            ],
            [
              139.9507360868,
              35.9027963356
            ],
            [
              139.9509057313,
              35.9028235201
            ]
          ]
        ]
      },
      "properties": {
        "ZoneID": "Zone_10",
        "NumVertices": 17
      }
    },
    {
      "type": "Feature",
      "geometry": {
        "type": "Polygon",
        "coordinates": [
          [
            [
              139.946378612,
              35.8865702202
            ],
            [
              139.9465480965,
              35.8865425229
            ],
            [
              139.9466916545,
              35.886464154
            ],
            [
              139.9467874305,
              35.8863470445
            ],
            [
              139.9468208435,
              35.8862090234
            ],
            [
              139.946786807,
              35.8860711032
            ],
            [
              139.9466905032,
              35.885954281
            ],
            [
              139.9465465935,
              35.8858763417
            ],
            [
              139.9463769866,
              35.8858491509
            ],
            [
              139.9462075035,
              35.8858768479
            ],
            [
              139.9460639461,
              35.8859552162
            ],
            [
              139.9459681696,
              35.8860723252
            ],
            [
              139.9459347551,
              35.886210346
            ],
            [
              139.9459687902,
              35.8863482665
            ],
            [
              139.9460650934,
              35.8864650892
            ],
            [
              139.9462090038,
              35.8865430291
            ],
            [
              139.946378612,
              35.8865702202
            ]
          ]
        ]
      },
      "properties": {
        "ZoneID": "Zone_11",
        "NumVertices": 17
      }
    },
    {
      "type": "Feature",
      "geometry": {
        "type": "Polygon",
        "coordinates": [
          [
            [
              139.956075744,
              35.8966383291
            ],
            [
              139.9562452465,
              35.8966106181
            ],
            [
              139.956388813,
              35.8965322377
            ],
            [
              139.9564845867,
              35.8964151207
            ],
            [
              139.956517987,
              35.8962770971
            ],
            [
              139.9564839294,
              35.89613918
            ],
            [
              139.9563875991,
              35.8960223658
            ],
            [
              139.9562436616,
              35.8959444384
            ],
            [
              139.9560740301,
              35.8959172614
            ],
            [
              139.955904529,
              35.8959449721
            ],
            [
              139.955760963,
              35.8960233519
            ],
            [
              139.9556651887,
              35.8961404684
            ],
            [
              139.955631787,
              35.8962784917
            ],
            [
              139.9556658432,
              35.896416409
            ],
            [
              139.9557621729,
              35.8965332238
            ],
            [
              139.955906111,
              35.8966111518
            ],
            [
              139.956075744,
              35.8966383291
            ]
          ]
        ]
      },
      "properties": {
        "ZoneID": "Zone_12",
        "NumVertices": 17
      }
    },
    {
      "type": "Feature",
      "geometry": {
        "type": "Polygon",
        "coordinates": [
          [
            [
              139.9555136883,
              35.8947464022
            ],
            [
              139.955683187,
              35.8947186921
            ],
            [
              139.9558267506,
              35.8946403123
            ],
            [
              139.9559225229,
              35.8945231957
            ],
            [
              139.9559559234,
              35.8943851723
            ],
            [
              139.9559218676,
              35.894247255
            ],
            [
              139.9558255404,
              35.8941304403
            ],
            [
              139.9556816069,
              35.8940525122
            ],
            [
              139.9555119796,
              35.8940253343
            ],
            [
              139.9553424823,
              35.8940530442
            ],
            [
              139.9551989193,
              35.8941314234
            ],
            [
              139.9551031464,
              35.8942485395
            ],
            [
              139.9550697444,
              35.8943865626
            ],
            [
              139.9551037989,
              35.8945244802
            ],
            [
              139.9552001255,
              35.8946412954
            ],
            [
              139.9553440595,
              35.8947192241
            ],
            [
              139.9555136883,
              35.8947464022
            ]
          ]
        ]
      },
      "properties": {
        "ZoneID": "Zone_13",
        "NumVertices": 17
      }
    },
    {
      "type": "Feature",
      "geometry": {
        "type": "Polygon",
        "coordinates": [
          [
            [
              139.9547862563,
              35.8884802329
            ],
            [
              139.9549557419,
              35.8884525238
            ],
            [
              139.955099295,
              35.8883741448
            ],
            [
              139.9551950608,
              35.8882570287
            ],
            [
              139.95522846,
              35.8881190053
            ],
            [
              139.9551944082,
              35.8879810876
            ],
            [
              139.9550980897,
              35.8878642723
            ],
            [
              139.9549541683,
              35.8877863431
            ],
            [
              139.9547845546,
              35.8877591642
            ],
            [
              139.9546150704,
              35.8877868731
            ],
            [
              139.9544715179,
              35.8878652514
            ],
            [
              139.9543757515,
              35.887982367
            ],
            [
              139.9543423508,
              35.8881203901
            ],
            [
              139.9543764012,
              35.888258308
            ],
            [
              139.9544727192,
              35.888375124
            ],
            [
              139.9546166412,
              35.8884530537
            ],
            [
              139.9547862563,
              35.8884802329
            ]
          ]
        ]
      },
      "properties": {
        "ZoneID": "Zone_14",
        "NumVertices": 17
      }
    },
    {
      "type": "Feature",
      "geometry": {
        "type": "Polygon",
        "coordinates": [
          [
            [
              139.9523334565,
              35.8943006805
            ],
            [
              139.9525029553,
              35.8942729748
            ],
            [
              139.9526465213,
              35.8941945989
            ],
            [
              139.9527422978,
              35.8940774848
            ],
            [
              139.9527757036,
              35.8939394622
            ],
            [
              139.9527416535,
              35.8938015439
            ],
            [
              139.9526453315,
              35.8936847267
            ],
            [
              139.9525014019,
              35.8936067948
            ],
            [
              139.9523317766,
              35.8935796124
            ],
            [
              139.9521622792,
              35.8936073178
            ],
            [
              139.9520187138,
              35.8936856932
            ],
            [
              139.9519229367,
              35.8938028067
            ],
            [
              139.9518895294,
              35.8939408291
            ],
            [
              139.9519235781,
              35.8940787476
            ],
            [
              139.9520198996,
              35.8941955654
            ],
            [
              139.9521638297,
              35.8942734979
            ],
            [
              139.9523334565,
              35.8943006805
            ]
          ]
        ]
      },
      "properties": {
        "ZoneID": "Zone_15",
        "NumVertices": 17
      }
    },
    {
      "type": "Feature",
      "geometry": {
        "type": "Polygon",
        "coordinates": [
          [
            [
              139.9530719383,
              35.8942995392
            ],
            [
              139.9532414369,
              35.8942718325
            ],
            [
              139.9533850021,
              35.8941934556
            ],
            [
              139.9534807775,
              35.8940763409
            ],
            [
              139.9535141821,
              35.8939383182
            ],
            [
              139.9534801307,
              35.8938004001
            ],
            [
              139.9533838076,
              35.8936835835
            ],
            [
              139.9532398773,
              35.8936056524
            ],
            [
              139.9530702518,
              35.8935784711
            ],
            [
              139.9529007546,
              35.8936061776
            ],
            [
              139.9527571899,
              35.8936845538
            ],
            [
              139.9526614139,
              35.893801668
            ],
            [
              139.9526280079,
              35.8939396905
            ],
            [
              139.9526620579,
              35.8940776088
            ],
            [
              139.9527583804,
              35.894194426
            ],
            [
              139.9529023113,
              35.8942723576
            ],
            [
              139.9530719383,
              35.8942995392
            ]
          ]
        ]
      },
      "properties": {
        "ZoneID": "Zone_16",
        "NumVertices": 17
      }
    },
    {
      "type": "Feature",
      "geometry": {
        "type": "Polygon",
        "coordinates": [
          [
            [
              139.9434399439,
              35.8999864896
            ],
            [
              139.943609458,
              35.8999587965
            ],
            [
              139.9437530431,
              35.8998804311
            ],
            [
              139.9438488394,
              35.8997633242
            ],
            [
              139.9438822631,
              35.8996253042
            ],
            [
              139.9438482259,
              35.8994873835
            ],
            [
              139.94375191,
              35.8993705592
            ],
            [
              139.9436079788,
              35.8992926167
            ],
            [
              139.9434383444,
              35.8992654218
            ],
            [
              139.9432688316,
              35.8992931147
            ],
            [
              139.9431252471,
              35.8993714795
            ],
            [
              139.9430294502,
              35.8994885858
            ],
            [
              139.9429960251,
              35.8996266056
            ],
            [
              139.9430300609,
              35.8997645265
            ],
            [
              139.9431263762,
              35.8998813514
            ],
            [
              139.943270308,
              35.8999592945
            ],
            [
              139.9434399439,
              35.8999864896
            ]
          ]
        ]
      },
      "properties": {
        "ZoneID": "Zone_17",
        "NumVertices": 17
      }
    },
    {
      "type": "Feature",
      "geometry": {
        "type": "Polygon",
        "coordinates": [
          [
            [
              139.9508420627,
              35.9008406756
            ],
            [
              139.951011576,
              35.900812972
            ],
            [
              139.9511551553,
              35.9007345979
            ],
            [
              139.9512509417,
              35.9006174851
            ],
            [
              139.9512843529,
              35.9004794631
            ],
            [
              139.9512503025,
              35.9003415446
            ],
            [
              139.9511539747,
              35.9002247263
            ],
            [
              139.9510100347,
              35.9001467926
            ],
            [
              139.950840396,
              35.9001196082
            ],
            [
              139.950670884,
              35.9001473116
            ],
            [
              139.9505273054,
              35.9002256851
            ],
            [
              139.9504315183,
              35.9003427974
            ],
            [
              139.9503981057,
              35.9004808191
            ],
            [
              139.9504321547,
              35.9006187379
            ],
            [
              139.9505284819,
              35.9007355568
            ],
            [
              139.9506724225,
              35.900813491
            ],
            [
              139.9508420627,
              35.9008406756
            ]
          ]
        ]
      },
      "properties": {
        "ZoneID": "Zone_18",
        "NumVertices": 17
      }
    },
    {
      "type": "Feature",
      "geometry": {
        "type": "Polygon",
        "coordinates": [
          [
            [
              139.9509943115,
              35.8964178789
            ],
            [
              139.9511638154,
              35.8963901751
            ],
            [
              139.9513073865,
              35.8963118007
            ],
            [
              139.9514031675,
              35.8961946877
            ],
            [
              139.9514365765,
              35.8960566656
            ],
            [
              139.9514025278,
              35.895918747
            ],
            [
              139.9513062052,
              35.8958019287
            ],
            [
              139.9511622731,
              35.8957239952
            ],
            [
              139.9509926437,
              35.895696811
            ],
            [
              139.9508231413,
              35.8957245145
            ],
            [
              139.9506795707,
              35.8958028883
            ],
            [
              139.9505837892,
              35.8959200007
            ],
            [
              139.9505503787,
              35.8960580226
            ],
            [
              139.950584426,
              35.8961959415
            ],
            [
              139.950680748,
              35.8963127603
            ],
            [
              139.9508246807,
              35.8963906944
            ],
            [
              139.9509943115,
              35.8964178789
            ]
          ]
        ]
      },
      "properties": {
        "ZoneID": "Zone_19",
        "NumVertices": 17
      }
    },
    {
      "type": "Feature",
      "geometry": {
        "type": "Polygon",
        "coordinates": [
          [
            [
              139.9536686175,
              35.8968103426
            ],
            [
              139.9538381213,
              35.896782635
            ],
            [
              139.9539816905,
              35.8967042575
            ],
            [
              139.9540774679,
              35.8965871424
            ],
            [
              139.9541108725,
              35.8964491195
            ],
            [
              139.954076819,
              35.8963112017
            ],
            [
              139.953980492,
              35.8961943856
            ],
            [
              139.9538365566,
              35.8961164553
            ],
            [
              139.9536669254,
              35.8960892748
            ],
            [
              139.9534974231,
              35.8961169822
            ],
            [
              139.9533538545,
              35.8961953591
            ],
            [
              139.9532580764,
              35.8963124737
            ],
            [
              139.9532246704,
              35.8964504963
            ],
            [
              139.9532587225,
              35.8965884144
            ],
            [
              139.953355049,
              35.896705231
            ],
            [
              139.953498985,
              35.8967831619
            ],
            [
              139.9536686175,
              35.8968103426
            ]
          ]
        ]
      },
      "properties": {
        "ZoneID": "Zone_20",
        "NumVertices": 17
      }
    },
    {
      "type": "Feature",
      "geometry": {
        "type": "Polygon",
        "coordinates": [
          [
            [
              139.9473781614,
              35.8910153309
            ],
            [
              139.9475476551,
              35.8909876322
            ],
            [
              139.9476912201,
              35.8909092621
            ],
            [
              139.9477869999,
              35.8907921519
            ],
            [
              139.947820413,
              35.8906541306
            ],
            [
              139.9477863729,
              35.8905162109
            ],
            [
              139.9476900622,
              35.8903993896
            ],
            [
              139.9475461434,
              35.8903214516
            ],
            [
              139.9473765267,
              35.8902942622
            ],
            [
              139.9472070345,
              35.8903219606
            ],
            [
              139.9470634701,
              35.8904003301
            ],
            [
              139.9469676897,
              35.8905174398
            ],
            [
              139.9469342752,
              35.8906554608
            ],
            [
              139.9469683139,
              35.8907933808
            ],
            [
              139.947064624,
              35.8909102027
            ],
            [
              139.9472085434,
              35.8909881412
            ],
            [
              139.9473781614,
              35.8910153309
            ]
          ]
        ]
      },
      "properties": {
        "ZoneID": "Zone_21",
        "NumVertices": 17
      }
    },
    {
      "type": "Feature",
      "geometry": {
        "type": "Polygon",
        "coordinates": [
          [
            [
              139.952444162,
              35.8911037622
            ],
            [
              139.9526136541,
              35.8910760564
            ],
            [
              139.9527572142,
              35.8909976803
            ],
            [
              139.9528529866,
              35.890880566
            ],
            [
              139.952886391,
              35.8907425434
            ],
            [
              139.9528523421,
              35.8906046251
            ],
            [
              139.9527560238,
              35.8904878079
            ],
            [
              139.9526120999,
              35.890409876
            ],
            [
              139.9524424814,
              35.8903826937
            ],
            [
              139.9522729908,
              35.8904103993
            ],
            [
              139.9521294313,
              35.8904887749
            ],
            [
              139.9520336582,
              35.8906058885
            ],
            [
              139.9520002524,
              35.8907439109
            ],
            [
              139.9520342999,
              35.8908818295
            ],
            [
              139.9521306176,
              35.8909986473
            ],
            [
              139.9522745421,
              35.8910765797
            ],
            [
              139.952444162,
              35.8911037622
            ]
          ]
        ]
      },
      "properties": {
        "ZoneID": "Zone_22",
        "NumVertices": 17
      }
    },
    {
      "type": "Feature",
      "geometry": {
        "type": "Polygon",
        "coordinates": [
          [
            [
              139.9369157026,
              35.9021070565
            ],
            [
              139.9370852236,
              35.9020793726
            ],
            [
              139.9372288189,
              35.9020010151
            ],
            [
              139.9373246275,
              35.9018839133
            ],
            [
              139.9373580634,
              35.9017458952
            ],
            [
              139.9373240366,
              35.9016079726
            ],
            [
              139.9372277277,
              35.9014911432
            ],
            [
              139.937083799,
              35.9014131928
            ],
            [
              139.9369141622,
              35.9013859887
            ],
            [
              139.9367446426,
              35.9014136724
            ],
            [
              139.9366010479,
              35.9014920294
            ],
            [
              139.9365052387,
              35.9016091305
            ],
            [
              139.9364718014,
              35.9017471485
            ],
            [
              139.9365058268,
              35.9018850713
            ],
            [
              139.9366021351,
              35.9020019013
            ],
            [
              139.9367460644,
              35.9020798522
            ],
            [
              139.9369157026,
              35.9021070565
            ]
          ]
        ]
      },
      "properties": {
        "ZoneID": "Zone_23",
        "NumVertices": 17
      }
    },
    {
      "type": "Feature",
      "geometry": {
        "type": "Polygon",
        "coordinates": [
          [
            [
              139.9343336869,
              35.8991137325
            ],
            [
              139.9345032024,
              35.8990860522
            ],
            [
              139.9346467949,
              35.8990076977
            ],
            [
              139.9347426037,
              35.898890598
            ],
            [
              139.9347760428,
              35.8987525805
            ],
            [
              139.9347420218,
              35.8986146571
            ],
            [
              139.9346457203,
              35.8984978255
            ],
            [
              139.9345017996,
              35.898419872
            ],
            [
              139.93433217,
              35.8983926642
            ],
            [
              139.934162656,
              35.8984203443
            ],
            [
              139.934019064,
              35.8984986982
            ],
            [
              139.9339232547,
              35.8986157973
            ],
            [
              139.9338898141,
              35.8987538146
            ],
            [
              139.9339238337,
              35.8988917382
            ],
            [
              139.9340201346,
              35.8990085704
            ],
            [
              139.9341640559,
              35.8990865245
            ],
            [
              139.9343336869,
              35.8991137325
            ]
          ]
        ]
      },
      "properties": {
        "ZoneID": "Zone_24",
        "NumVertices": 17
      }
    }
  ]
}