{"type": "FeatureCollection", "features": [{"type": "Feature", "geometry": {"type": "Point", "coordinates": [139.798597452789, 35.7334964017327]}, "properties": {"stop_id": "1_0", "stop_name": "南千住駅西口", "route_ids": ["3", "4", "2", "1"]}}, {"type": "Feature", "geometry": {"type": "Point", "coordinates": [139.79722815, 35.73505091]}, "properties": {"stop_id": "2_1", "stop_name": "コツ通り", "route_ids": ["1"]}}, {"type": "Feature", "geometry": {"type": "Point", "coordinates": [139.797248417342, 35.7355393475673]}, "properties": {"stop_id": "2_2", "stop_name": "コツ通り", "route_ids": ["3", "4", "2"]}}, {"type": "Feature", "geometry": {"type": "Point", "coordinates": [139.79433774857, 35.7370683761328]}, "properties": {"stop_id": "3_1", "stop_name": "南千住図書館（荒川ふるさと文化館）", "route_ids": ["1"]}}, {"type": "Feature", "geometry": {"type": "Point", "coordinates": [139.795410606917, 35.7370280953764]}, "properties": {"stop_id": "3_2", "stop_name": "南千住図書館（荒川ふるさと文化館）", "route_ids": ["3", "4", "2"]}}, {"type": "Feature", "geometry": {"type": "Point", "coordinates": [139.791925097402, 35.7369704304475]}, "properties": {"stop_id": "4_1", "stop_name": "南千住野球場", "route_ids": ["1"]}}, {"type": "Feature", "geometry": {"type": "Point", "coordinates": [139.792077027734, 35.7370254696418]}, "properties": {"stop_id": "4_2", "stop_name": "南千住野球場", "route_ids": ["3", "4", "2"]}}, {"type": "Feature", "geometry": {"type": "Point", "coordinates": [139.791316860115, 35.7387454668749]}, "properties": {"stop_id": "5_1", "stop_name": "グリーンハイム荒川", "route_ids": ["1"]}}, {"type": "Feature", "geometry": {"type": "Point", "coordinates": [139.791229852039, 35.7388397622078]}, "properties": {"stop_id": "5_2", "stop_name": "グリーンハイム荒川", "route_ids": ["3", "4", "2"]}}, {"type": "Feature", "geometry": {"type": "Point", "coordinates": [139.790359351224, 35.7405720800271]}, "properties": {"stop_id": "6_1", "stop_name": "アクロシティ", "route_ids": ["1"]}}, {"type": "Feature", "geometry": {"type": "Point", "coordinates": [139.790707041869, 35.7409457243407]}, "properties": {"stop_id": "6_2", "stop_name": "アクロシティ", "route_ids": ["3", "4", "2"]}}, {"type": "Feature", "geometry": {"type": "Point", "coordinates": [139.784963776418, 35.7434265684576]}, "properties": {"stop_id": "7_1", "stop_name": "荒川自然公園入口", "route_ids": ["1"]}}, {"type": "Feature", "geometry": {"type": "Point", "coordinates": [139.785463255412, 35.743620784371]}, "properties": {"stop_id": "7_2", "stop_name": "荒川自然公園入口", "route_ids": ["3", "4", "2"]}}, {"type": "Feature", "geometry": {"type": "Point", "coordinates": [139.782363935446, 35.742755607649]}, "properties": {"stop_id": "8_1", "stop_name": "町屋駅", "route_ids": ["1"]}}, {"type": "Feature", "geometry": {"type": "Point", "coordinates": [139.7814653197, 35.7421923004041]}, "properties": {"stop_id": "8_2", "stop_name": "町屋駅", "route_ids": ["3", "4", "2"]}}, {"type": "Feature", "geometry": {"type": "Point", "coordinates": [139.780410031292, 35.7413034193659]}, "properties": {"stop_id": "9_1", "stop_name": "花の木", "route_ids": ["1"]}}, {"type": "Feature", "geometry": {"type": "Point", "coordinates": [139.779815278435, 35.7409412053053]}, "properties": {"stop_id": "9_2", "stop_name": "花の木", "route_ids": ["3", "4", "2"]}}, {"type": "Feature", "geometry": {"type": "Point", "coordinates": [139.778281272045, 35.7393374699583]}, "properties": {"stop_id": "9-1_1", "stop_name": "子ども家庭支援センター", "route_ids": ["1"]}}, {"type": "Feature", "geometry": {"type": "Point", "coordinates": [139.777873724969, 35.739543300421]}, "properties": {"stop_id": "9-1_2", "stop_name": "子ども家庭支援センター", "route_ids": ["3", "4", "2"]}}, {"type": "Feature", "geometry": {"type": "Point", "coordinates": [139.780017488331, 35.7387642534861]}, "properties": {"stop_id": "10_1", "stop_name": "荒川四丁目", "route_ids": ["1"]}}, {"type": "Feature", "geometry": {"type": "Point", "coordinates": [139.780105965291, 35.7386711410492]}, "properties": {"stop_id": "10_2", "stop_name": "荒川四丁目", "route_ids": ["3", "4", "2"]}}, {"type": "Feature", "geometry": {"type": "Point", "coordinates": [139.781752645742, 35.7376090694201]}, "properties": {"stop_id": "11_1", "stop_name": "荒川中央通り", "route_ids": ["1"]}}, {"type": "Feature", "geometry": {"type": "Point", "coordinates": [139.783242867136, 35.7352266688836]}, "properties": {"stop_id": "12_1", "stop_name": "荒川区役所", "route_ids": ["1"]}}, {"type": "Feature", "geometry": {"type": "Point", "coordinates": [139.784045166894, 35.7348223369624]}, "properties": {"stop_id": "12_2", "stop_name": "荒川区役所", "route_ids": ["3", "2"]}}, {"type": "Feature", "geometry": {"type": "Point", "coordinates": [139.783234404672, 35.7406404675988]}, "properties": {"stop_id": "11-1_2", "stop_name": "アクロスあらかわ", "route_ids": ["4"]}}, {"type": "Feature", "geometry": {"type": "Point", "coordinates": [139.784290856904, 35.7394702008733]}, "properties": {"stop_id": "12-1_2", "stop_name": "ゆいの森あらかわ", "route_ids": ["4"]}}, {"type": "Feature", "geometry": {"type": "Point", "coordinates": [139.787662426804, 35.7355542880521]}, "properties": {"stop_id": "13_1", "stop_name": "千住間道西", "route_ids": ["1"]}}, {"type": "Feature", "geometry": {"type": "Point", "coordinates": [139.786867305564, 35.7352298431289]}, "properties": {"stop_id": "13_2", "stop_name": "千住間道西", "route_ids": ["3", "4", "2"]}}, {"type": "Feature", "geometry": {"type": "Point", "coordinates": [139.791018030518, 35.7354482622582]}, "properties": {"stop_id": "14_1", "stop_name": "荒川総合スポーツセンター", "route_ids": ["1"]}}, {"type": "Feature", "geometry": {"type": "Point", "coordinates": [139.791172117469, 35.7352930944091]}, "properties": {"stop_id": "14_2", "stop_name": "荒川総合スポーツセンター", "route_ids": ["3", "4", "2"]}}, {"type": "Feature", "geometry": {"type": "Point", "coordinates": [139.797114499461, 35.7339414593723]}, "properties": {"stop_id": "14-1_1", "stop_name": "南千住五丁目", "route_ids": ["1"]}}, {"type": "Feature", "geometry": {"type": "Point", "coordinates": [139.796242313637, 35.7338272735753]}, "properties": {"stop_id": "14-1_2", "stop_name": "南千住五丁目", "route_ids": ["3", "4", "2"]}}]}