{
"type": "FeatureCollection",
"name": "campus",
"crs": { "type": "name", "properties": { "name": "urn:ogc:def:crs:OGC:1.3:CRS84" } },
"features": [
{ "type": "Feature", "properties": { "name": "Komaba2campus" }, "geometry": { "type": "Polygon", "coordinates": [ [ [ 139.676346745437115, 35.663833438315457 ], [ 139.676370317158018, 35.663373815752948 ], [ 139.676217100972138, 35.663325938250516 ], [ 139.676594248506575, 35.660539418151785 ], [ 139.677159969808201, 35.660529842313686 ], [ 139.677159969808201, 35.660644752295113 ], [ 139.677973194179231, 35.660683055585501 ], [ 139.678055695202403, 35.660817116957205 ], [ 139.678715703387638, 35.660864995963976 ], [ 139.67852712962042, 35.66342169322666 ], [ 139.678538915480885, 35.663948343542664 ], [ 139.678397485155472, 35.66392919268295 ], [ 139.678314984132328, 35.663919617251359 ], [ 139.678220697248719, 35.663919617251359 ], [ 139.677914264877018, 35.663919617251359 ], [ 139.677607832505288, 35.663929192682936 ], [ 139.677607832505288, 35.663929192682936 ], [ 139.677607832505288, 35.663929192682936 ], [ 139.677607832505288, 35.663919617251359 ], [ 139.677607832505288, 35.663919617251359 ], [ 139.677607832505288, 35.663919617251359 ], [ 139.677607832505288, 35.663919617251359 ], [ 139.677607832505288, 35.663919617251359 ], [ 139.677607832505288, 35.663919617251359 ], [ 139.677607832505288, 35.663919617251359 ], [ 139.677607832505288, 35.663919617251359 ], [ 139.677584260784386, 35.663919617251359 ], [ 139.677584260784386, 35.663919617251359 ], [ 139.677584260784386, 35.66389089094973 ], [ 139.676346745437115, 35.663833438315457 ] ] ] } }
]
}
