{
"type": "FeatureCollection",
"name": "resutaurant",
"crs": { "type": "name", "properties": { "name": "urn:ogc:def:crs:OGC:1.3:CRS84" } },
"features": [
{ "type": "Feature", "properties": { "name": "senrigan", "category": "ramen", "seats": 10 }, "geometry": { "type": "Point", "coordinates": [ 139.678514360566936, 35.663976836598252 ] } },
{ "type": "Feature", "properties": { "name": "shunju", "category": "japanese", "seats": 15 }, "geometry": { "type": "Point", "coordinates": [ 139.678550004610145, 35.664218161332805 ] } }
]
}
